[{"OBJECT_NAME":"PRSS-1","OBJECT_ID":"2018-056B","EPOCH":"2026-03-09T22:22:59.119680","MEAN_MOTION":14.81812509,"ECCENTRICITY":0.00013581,"INCLINATION":97.7911,"RA_OF_ASC_NODE":139.5221,"ARG_OF_PERICENTER":77.954,"MEAN_ANOMALY":282.1826,"EPHEMERIS_TYPE":0,"CLASSIFICATION_TYPE":"U","NORAD_CAT_ID":43530,"ELEMENT_SET_NO":999,"REV_AT_EPOCH":41373,"BSTAR":0.00012829012,"MEAN_MOTION_DOT":9.62e-6,"MEAN_MOTION_DDOT":0},{"OBJECT_NAME":"SL-14 R\/B","OBJECT_ID":"1983-122B","EPOCH":"2026-03-09T19:33:20.530944","MEAN_MOTION":14.85861842,"ECCENTRICITY":0.00180897,"INCLINATION":82.5257,"RA_OF_ASC_NODE":329.5422,"ARG_OF_PERICENTER":79.8346,"MEAN_ANOMALY":280.491,"EPHEMERIS_TYPE":0,"CLASSIFICATION_TYPE":"U","NORAD_CAT_ID":14552,"ELEMENT_SET_NO":999,"REV_AT_EPOCH":26085,"BSTAR":6.9629297e-5,"MEAN_MOTION_DOT":6.32e-6,"MEAN_MOTION_DDOT":0}]
